STARLINK-1329           
1 45531U 20025A   22337.70166898 -.00000039  00000+0  16297-4 0  9990
2 45531  53.0562  57.6692 0001480  52.0342 308.0781 15.06387129144834
